[
    {
        "Altitude(m)": 559726.6988888442,
        "Argument of Periapsis(deg)": 0.0,
        "Eccentricity": 0.0,
        "Inclination(deg)": 53.0,
        "Latitude(deg)": 52.383296373635375,
        "Longitude(deg)": 48.482307510344455,
        "Mean Anomaly(deg)": 98.18179999999998,
        "RAAN(deg)": 45.0,
        "Satellite Name": "Starlink Shell 1 204",
        "Satellite Number": 204,
        "Semi-Major Axis(m)": 6931778.249405717,
        "Time(s)": 0
    },
    {
        "Altitude(m)": 559699.259159094,
        "Argument of Periapsis(deg)": 0.00034857847951123687,
        "Eccentricity": 0.0,
        "Inclination(deg)": 53.0,
        "Latitude(deg)": 52.26253793684154,
        "Longitude(deg)": 49.44463730329827,
        "Mean Anomaly(deg)": 98.80863120355671,
        "RAAN(deg)": 44.99948122992253,
        "Satellite Name": "Starlink Shell 1 204",
        "Satellite Number": 204,
        "Semi-Major Axis(m)": 6931778.249405717,
        "Time(s)": 10
    },
    {
        "Altitude(m)": 559669.8716856275,
        "Argument of Periapsis(deg)": 0.0006971569590224737,
        "Eccentricity": 0.0,
        "Inclination(deg)": 53.0,
        "Latitude(deg)": 52.133297534817224,
        "Longitude(deg)": 50.40134349470078,
        "Mean Anomaly(deg)": 99.4354624071134,
        "RAAN(deg)": 44.99896245984505,
        "Satellite Name": "Starlink Shell 1 204",
        "Satellite Number": 204,
        "Semi-Major Axis(m)": 6931778.249405717,
        "Time(s)": 20
    },
    {
        "Altitude(m)": 559638.5542004972,
        "Argument of Periapsis(deg)": 0.0010457354385337105,
        "Eccentricity": 0.0,
        "Inclination(deg)": 53.0,
        "Latitude(deg)": 51.995662642484895,
        "Longitude(deg)": 51.35210881176293,
        "Mean Anomaly(deg)": 100.06229361067015,
        "RAAN(deg)": 44.99844368976758,
        "Satellite Name": "Starlink Shell 1 204",
        "Satellite Number": 204,
        "Semi-Major Axis(m)": 6931778.249405717,
        "Time(s)": 30
    },
    {
        "Altitude(m)": 559605.3256087925,
        "Argument of Periapsis(deg)": 0.0013943139180449475,
        "Eccentricity": 0.0,
        "Inclination(deg)": 53.0,
        "Latitude(deg)": 51.84972512363039,
        "Longitude(deg)": 52.29663167630105,
        "Mean Anomaly(deg)": 100.68912481422686,
        "RAAN(deg)": 44.997924919690114,
        "Satellite Name": "Starlink Shell 1 204",
        "Satellite Number": 204,
        "Semi-Major Axis(m)": 6931778.249405717,
        "Time(s)": 40
    },
    {
        "Altitude(m)": 559570.2059794045,
        "Argument of Periapsis(deg)": 0.0017428923975561844,
        "Eccentricity": 0.0,
        "Inclination(deg)": 53.0,
        "Latitude(deg)": 51.69558095323078,
        "Longitude(deg)": 53.23462561407481,
        "Mean Anomaly(deg)": 101.31595601778356,
        "RAAN(deg)": 44.99740614961263,
        "Satellite Name": "Starlink Shell 1 204",
        "Satellite Number": 204,
        "Semi-Major Axis(m)": 6931778.249405717,
        "Time(s)": 50
    },
    {
        "Altitude(m)": 559533.2165352292,
        "Argument of Periapsis(deg)": 0.002091470877067421,
        "Eccentricity": 0.0,
        "Inclination(deg)": 53.0,
        "Latitude(deg)": 51.5333299349812,
        "Longitude(deg)": 54.16582009061391,
        "Mean Anomaly(deg)": 101.9427872213403,
        "RAAN(deg)": 44.99688737953516,
        "Satellite Name": "Starlink Shell 1 204",
        "Satellite Number": 204,
        "Semi-Major Axis(m)": 6931778.249405717,
        "Time(s)": 60
    },
    {
        "Altitude(m)": 559494.3796427688,
        "Argument of Periapsis(deg)": 0.0024400493565786582,
        "Eccentricity": 0.0,
        "Inclination(deg)": 53.0,
        "Latitude(deg)": 51.36307541576581,
        "Longitude(deg)": 55.08996126221749,
        "Mean Anomaly(deg)": 102.56961842489699,
        "RAAN(deg)": 44.99636860945769,
        "Satellite Name": "Starlink Shell 1 204",
        "Satellite Number": 204,
        "Semi-Major Axis(m)": 6931778.249405717,
        "Time(s)": 70
    },
    {
        "Altitude(m)": 559453.7188012161,
        "Argument of Periapsis(deg)": 0.002788627836089895,
        "Eccentricity": 0.0,
        "Inclination(deg)": 53.0,
        "Latitude(deg)": 51.18492399874752,
        "Longitude(deg)": 56.00681113160378,
        "Mean Anomaly(deg)": 103.19644962845373,
        "RAAN(deg)": 44.99584983938021,
        "Satellite Name": "Starlink Shell 1 204",
        "Satellite Number": 204,
        "Semi-Major Axis(m)": 6931778.249405717,
        "Time(s)": 80
    },
    {
        "Altitude(m)": 559411.2586309348,
        "Argument of Periapsis(deg)": 0.0031372063156011316,
        "Eccentricity": 0.0,
        "Inclination(deg)": 53.0,
        "Latitude(deg)": 50.99898525667865,
        "Longitude(deg)": 56.916148136953446,
        "Mean Anomaly(deg)": 103.82328083201044,
        "RAAN(deg)": 44.99533106930274,
        "Satellite Name": "Starlink Shell 1 204",
        "Satellite Number": 204,
        "Semi-Major Axis(m)": 6931778.249405717,
        "Time(s)": 90
    },
    {
        "Altitude(m)": 559367.024861406,
        "Argument of Periapsis(deg)": 0.0034857847951123688,
        "Eccentricity": 0.0,
        "Inclination(deg)": 53.0,
        "Latitude(deg)": 50.805371446941145,
        "Longitude(deg)": 57.81776766502687,
        "Mean Anomaly(deg)": 104.45011203556714,
        "RAAN(deg)": 44.994812299225266,
        "Satellite Name": "Starlink Shell 1 204",
        "Satellite Number": 204,
        "Semi-Major Axis(m)": 6931778.249405717,
        "Time(s)": 100
    },
    {
        "Altitude(m)": 559321.0443186304,
        "Argument of Periapsis(deg)": 0.003834363274623606,
        "Eccentricity": 0.0,
        "Inclination(deg)": 53.0,
        "Latitude(deg)": 50.604197229725315,
        "Longitude(deg)": 58.711480979504394,
        "Mean Anomaly(deg)": 105.07694323912385,
        "RAAN(deg)": 44.9942935291478,
        "Satellite Name": "Starlink Shell 1 204",
        "Satellite Number": 204,
        "Semi-Major Axis(m)": 6931778.249405717,
        "Time(s)": 110
    },
    {
        "Altitude(m)": 559273.3449119705,
        "Argument of Periapsis(deg)": 0.004182941754134842,
        "Eccentricity": 0.0,
        "Inclination(deg)": 53.0,
        "Latitude(deg)": 50.39557939065444,
        "Longitude(deg)": 59.59711559473024,
        "Mean Anomaly(deg)": 105.70377444268054,
        "RAAN(deg)": 44.99377475907033,
        "Satellite Name": "Starlink Shell 1 204",
        "Satellite Number": 204,
        "Semi-Major Axis(m)": 6931778.249405717,
        "Time(s)": 120
    },
    {
        "Altitude(m)": 559223.9556204722,
        "Argument of Periapsis(deg)": 0.004531520233646079,
        "Eccentricity": 0.0,
        "Inclination(deg)": 53.0,
        "Latitude(deg)": 50.17963656904465,
        "Longitude(deg)": 60.474515586721424,
        "Mean Anomaly(deg)": 106.3306056462373,
        "RAAN(deg)": 44.99325598899285,
        "Satellite Name": "Starlink Shell 1 204",
        "Satellite Number": 204,
        "Semi-Major Axis(m)": 6931778.249405717,
        "Time(s)": 130
    },
    {
        "Altitude(m)": 559172.9064786299,
        "Argument of Periapsis(deg)": 0.0048800987131573164,
        "Eccentricity": 0.0,
        "Inclination(deg)": 53.0,
        "Latitude(deg)": 49.95648899287188,
        "Longitude(deg)": 61.343540333537284,
        "Mean Anomaly(deg)": 106.95743684979402,
        "RAAN(deg)": 44.99273721891538,
        "Satellite Name": "Starlink Shell 1 204",
        "Satellite Number": 204,
        "Semi-Major Axis(m)": 6931778.249405717,
        "Time(s)": 140
    },
    {
        "Altitude(m)": 559120.2285616501,
        "Argument of Periapsis(deg)": 0.005228677192668553,
        "Eccentricity": 0.0,
        "Inclination(deg)": 53.0,
        "Latitude(deg)": 49.726258221403455,
        "Longitude(deg)": 62.20406471589291,
        "Mean Anomaly(deg)": 107.58426805335073,
        "RAAN(deg)": 44.99221844883791,
        "Satellite Name": "Starlink Shell 1 204",
        "Satellite Number": 204,
        "Semi-Major Axis(m)": 6931778.249405717,
        "Time(s)": 150
    },
    {
        "Altitude(m)": 559065.9539701671,
        "Argument of Periapsis(deg)": 0.00557725567217979,
        "Eccentricity": 0.0,
        "Inclination(deg)": 53.0,
        "Latitude(deg)": 49.48906689632814,
        "Longitude(deg)": 63.0559792703515,
        "Mean Anomaly(deg)": 108.21109925690742,
        "RAAN(deg)": 44.99169967876043,
        "Satellite Name": "Starlink Shell 1 204",
        "Satellite Number": 204,
        "Semi-Major Axis(m)": 6931778.249405717,
        "Time(s)": 160
    },
    {
        "Altitude(m)": 559010.1158144778,
        "Argument of Periapsis(deg)": 0.0059258341516910265,
        "Eccentricity": 0.0,
        "Inclination(deg)": 53.0,
        "Latitude(deg)": 49.24503850209847,
        "Longitude(deg)": 63.89918878745699,
        "Mean Anomaly(deg)": 108.83793046046414,
        "RAAN(deg)": 44.99118090868296,
        "Satellite Name": "Starlink Shell 1 204",
        "Satellite Number": 204,
        "Semi-Major Axis(m)": 6931778.249405717,
        "Time(s)": 170
    },
    {
        "Altitude(m)": 558952.7481982262,
        "Argument of Periapsis(deg)": 0.006274412631202263,
        "Eccentricity": 0.0,
        "Inclination(deg)": 53.0,
        "Latitude(deg)": 48.994297136090346,
        "Longitude(deg)": 64.73361238574505,
        "Mean Anomaly(deg)": 109.46476166402087,
        "RAAN(deg)": 44.99066213860549,
        "Satellite Name": "Starlink Shell 1 204",
        "Satellite Number": 204,
        "Semi-Major Axis(m)": 6931778.249405717,
        "Time(s)": 180
    }
]